[{"OBJECT_NAME":"GLOBALSTAR M082","OBJECT_ID":"2011-080C","EPOCH":"2026-03-09T23:27:22.854240","MEAN_MOTION":12.62268253,"ECCENTRICITY":0.0001134,"INCLINATION":52.0066,"RA_OF_ASC_NODE":276.4903,"ARG_OF_PERICENTER":77.8834,"MEAN_ANOMALY":69.7432,"EPHEMERIS_TYPE":0,"CLASSIFICATION_TYPE":"U","NORAD_CAT_ID":38042,"ELEMENT_SET_NO":999,"REV_AT_EPOCH":65706,"BSTAR":0.00011935201,"MEAN_MOTION_DOT":-8.2e-7,"MEAN_MOTION_DDOT":0},{"OBJECT_NAME":"COSMOS 2042","OBJECT_ID":"1989-074E","EPOCH":"2026-03-09T15:25:05.474208","MEAN_MOTION":12.64228977,"ECCENTRICITY":0.0005201,"INCLINATION":82.5786,"RA_OF_ASC_NODE":282.0684,"ARG_OF_PERICENTER":9.2933,"MEAN_ANOMALY":46.7049,"EPHEMERIS_TYPE":0,"CLASSIFICATION_TYPE":"U","NORAD_CAT_ID":20236,"ELEMENT_SET_NO":999,"REV_AT_EPOCH":79909,"BSTAR":8.6716e-5,"MEAN_MOTION_DOT":2.7e-7,"MEAN_MOTION_DDOT":0}]
